{
"type": "FeatureCollection",
"name": "Physician_Point",
"crs": { "type": "name", "properties": { "name": "urn:ogc:def:crs:EPSG::4052" } },
"features": [
{ "type": "Feature", "properties": { "OBJECTID_1": 1, "OBJECTID": 1, "Territory_": "WA + OR + ID + AK + MT + WY + ND + SD", "Status": "AVAILABLE", "State": "Alaska", "STATE_FIPS": "02", "SUB_REGION": "Pacific", "STATE_ABBR": "AK", "POPULATION": 744733, "Shape_Leng": 497.28514300699999, "ORIG_FID": 0 }, "geometry": { "type": "Point", "coordinates": [ -152.723628383243266, 64.569591859976413 ] } },
{ "type": "Feature", "properties": { "OBJECTID_1": 2, "OBJECTID": 2, "Territory_": "AZ + NV + CO + UT + NM", "Status": "AVAILABLE", "State": "Nevada", "STATE_FIPS": "32", "SUB_REGION": "Mountain", "STATE_ABBR": "NV", "POPULATION": 2994047, "Shape_Leng": 55.087316624099998, "ORIG_FID": 1 }, "geometry": { "type": "Point", "coordinates": [ -110.287207208445864, 37.156048890943623 ] } },
{ "type": "Feature", "properties": { "OBJECTID_1": 3, "OBJECTID": 3, "Territory_": "LA + MS + AR + AL + OK", "Status": "AVAILABLE", "State": "Arkansas", "STATE_FIPS": "05", "SUB_REGION": "West South Central", "STATE_ABBR": "AR", "POPULATION": 3041640, "Shape_Leng": 70.065020819200001, "ORIG_FID": 2 }, "geometry": { "type": "Point", "coordinates": [ -92.164544561981927, 33.674976525246507 ] } },
{ "type": "Feature", "properties": { "OBJECTID_1": 4, "OBJECTID": 4, "Territory_": "MN + WI + IA + NE", "Status": "AVAILABLE", "State": "Iowa", "STATE_FIPS": "19", "SUB_REGION": "West North Central", "STATE_ABBR": "IA", "POPULATION": 3199548, "Shape_Leng": 65.452811529100003, "ORIG_FID": 3 }, "geometry": { "type": "Point", "coordinates": [ -94.75703879520421, 43.818218105181472 ] } },
{ "type": "Feature", "properties": { "OBJECTID_1": 5, "OBJECTID": 5, "Territory_": "MO + KS + TN + KY", "Status": "AVAILABLE", "State": "Kansas", "STATE_FIPS": "20", "SUB_REGION": "West North Central", "STATE_ABBR": "KS", "POPULATION": 2970523, "Shape_Leng": 63.018776515200003, "ORIG_FID": 4 }, "geometry": { "type": "Point", "coordinates": [ -92.260978025015788, 37.821993439645553 ] } },
{ "type": "Feature", "properties": { "OBJECTID_1": 6, "OBJECTID": 6, "Territory_": "TX", "Status": "AVAILABLE", "State": "Texas", "STATE_FIPS": "48", "SUB_REGION": "West South Central", "STATE_ABBR": "TX", "POPULATION": 28296099, "Shape_Leng": 64.807458366399999, "ORIG_FID": 5 }, "geometry": { "type": "Point", "coordinates": [ -99.35535021084354, 31.495735619103584 ] } },
{ "type": "Feature", "properties": { "OBJECTID_1": 7, "OBJECTID": 7, "Territory_": "MA+CT+RI+VT+NH+ME", "Status": "AVAILABLE", "State": "Connecticut", "STATE_FIPS": "09", "SUB_REGION": "New England", "STATE_ABBR": "CT", "POPULATION": 3648725, "Shape_Leng": 35.143006868500002, "ORIG_FID": 6 }, "geometry": { "type": "Point", "coordinates": [ -72.036245962680994, 43.156340554273186 ] } },
{ "type": "Feature", "properties": { "OBJECTID_1": 8, "OBJECTID": 8, "Territory_": "MD + DC + DE + WV", "Status": "AVAILABLE", "State": "Delaware", "STATE_FIPS": "10", "SUB_REGION": "South Atlantic", "STATE_ABBR": "DE", "POPULATION": 971403, "Shape_Leng": 33.0410224138, "ORIG_FID": 7 }, "geometry": { "type": "Point", "coordinates": [ -80.74677441550682, 38.678232033181814 ] } },
{ "type": "Feature", "properties": { "OBJECTID_1": 9, "OBJECTID": 9, "Territory_": "FL", "Status": "AVAILABLE", "State": "Florida", "STATE_FIPS": "12", "SUB_REGION": "South Atlantic", "STATE_ABBR": "FL", "POPULATION": 20619313, "Shape_Leng": 41.0850101602, "ORIG_FID": 8 }, "geometry": { "type": "Point", "coordinates": [ -83.838311210593872, 30.336878746257185 ] } },
{ "type": "Feature", "properties": { "OBJECTID_1": 10, "OBJECTID": 10, "Territory_": "SC+GA", "Status": "AVAILABLE", "State": "Georgia", "STATE_FIPS": "13", "SUB_REGION": "South Atlantic", "STATE_ABBR": "GA", "POPULATION": 10390390, "Shape_Leng": 26.879590518299999, "ORIG_FID": 9 }, "geometry": { "type": "Point", "coordinates": [ -82.566924093771888, 33.096459927183957 ] } },
{ "type": "Feature", "properties": { "OBJECTID_1": 11, "OBJECTID": 11, "Territory_": "IL+MN", "Status": "AVAILABLE", "State": "Illinois", "STATE_FIPS": "17", "SUB_REGION": "East North Central", "STATE_ABBR": "IL", "POPULATION": 13027812, "Shape_Leng": 25.900838196, "ORIG_FID": 10 }, "geometry": { "type": "Point", "coordinates": [ -88.055778855709605, 40.004687337750511 ] } },
{ "type": "Feature", "properties": { "OBJECTID_1": 12, "OBJECTID": 12, "Territory_": "OH+MI", "Status": "AVAILABLE", "State": "Michigan", "STATE_FIPS": "26", "SUB_REGION": "East North Central", "STATE_ABBR": "MI", "POPULATION": 10024786, "Shape_Leng": 54.337709916100003, "ORIG_FID": 11 }, "geometry": { "type": "Point", "coordinates": [ -85.256121242201516, 43.547626391744643 ] } },
{ "type": "Feature", "properties": { "OBJECTID_1": 13, "OBJECTID": 13, "Territory_": "NY", "Status": "AVAILABLE", "State": "New York", "STATE_FIPS": "36", "SUB_REGION": "Middle Atlantic", "STATE_ABBR": "NY", "POPULATION": 20096494, "Shape_Leng": 28.487469332900002, "ORIG_FID": 12 }, "geometry": { "type": "Point", "coordinates": [ -74.869602291112813, 43.207092393699043 ] } },
{ "type": "Feature", "properties": { "OBJECTID_1": 14, "OBJECTID": 14, "Territory_": "NC + VA", "Status": "SOLD", "State": "North Carolina", "STATE_FIPS": "37", "SUB_REGION": "South Atlantic", "STATE_ABBR": "NC", "POPULATION": 10304250, "Shape_Leng": 54.427517637800001, "ORIG_FID": 13 }, "geometry": { "type": "Point", "coordinates": [ -79.177828648373406, 36.435861994735319 ] } },
{ "type": "Feature", "properties": { "OBJECTID_1": 15, "OBJECTID": 15, "Territory_": "PA+NJ", "Status": "AVAILABLE", "State": "Pennsylvania", "STATE_FIPS": "42", "SUB_REGION": "Middle Atlantic", "STATE_ABBR": "PA", "POPULATION": 12976662, "Shape_Leng": 19.648944673700001, "ORIG_FID": 14 }, "geometry": { "type": "Point", "coordinates": [ -77.362659508229683, 40.779624022130974 ] } },
{ "type": "Feature", "properties": { "OBJECTID_1": 16, "OBJECTID": 16, "Territory_": "CA2 + HI", "Status": "AVAILABLE", "State": "CA", "STATE_FIPS": null, "SUB_REGION": null, "STATE_ABBR": null, "POPULATION": 0, "Shape_Leng": 43.078874348399999, "ORIG_FID": 15 }, "geometry": { "type": "Point", "coordinates": [ -120.900150864170996, 38.734982475660786 ] } },
{ "type": "Feature", "properties": { "OBJECTID_1": 17, "OBJECTID": 17, "Territory_": "CA1", "Status": "AVAILABLE", "State": "CA", "STATE_FIPS": null, "SUB_REGION": null, "STATE_ABBR": null, "POPULATION": 0, "Shape_Leng": 23.869021437099999, "ORIG_FID": 16 }, "geometry": { "type": "Point", "coordinates": [ -117.184655603073566, 34.466596453763373 ] } },
{ "type": "Feature", "properties": { "OBJECTID_1": 18, "OBJECTID": 1, "Territory_": "WA + OR + ID + AK + MT + WY + ND + SD", "Status": "AVAILABLE", "State": "Alaska", "STATE_FIPS": "02", "SUB_REGION": "Pacific", "STATE_ABBR": "AK", "POPULATION": 744733, "Shape_Leng": 497.28514300699999, "ORIG_FID": 0 }, "geometry": { "type": "Point", "coordinates": [ -110.654757800332163, 44.962833172013347 ] } }
]
}
